NORAD_CAT_ID,OBJECT_NAME,OBJECT_TYPE,EPOCH,MEAN_MOTION,ECCENTRICITY,INCLINATION,RA_OF_ASC_NODE,ARG_OF_PERICENTER,MEAN_ANOMALY,BSTAR,MEAN_MOTION_DOT,MEAN_MOTION_DDOT,TLE_LINE0,TLE_LINE1,TLE_LINE2,SEMIMAJOR_AXIS,PERIOD,APOGEE,PERIGEE,DECAYED
51468.0,STARLINK-3174,PAYLOAD,2024-08-16 10:00:37,15.08863933,0.0002772,53.2168,319.1382,135.2259,224.8958,0.001378,0.00021726,0.0,0 STARLINK-3174,1 51468U 22010N   24229.41710544  .00021726  00000-0  13780-2 0  9993,2 51468  53.2168 319.1382 0002772 135.2259 224.8958 15.08863933141238,6917.807,95.436,541.59,537.755,0.0
51468.0,STARLINK-3174,PAYLOAD,2024-08-17 05:05:16,15.08835694,0.0001372,53.2148,315.571,57.2829,302.8296,0.00061685,9.542e-05,0.0,0 STARLINK-3174,1 51468U 22010N   24230.21199566  .00009542  00000-0  61685-3 0  9998,2 51468  53.2148 315.5710 0001372  57.2829 302.8296 15.08835694141350,6917.894,95.438,540.708,538.809,0.0
51468.0,STARLINK-3174,PAYLOAD,2024-08-17 14:37:35,15.08843088,0.0001412,53.2154,313.7864,77.1229,282.9921,0.00058128,8.976e-05,0.0,0 STARLINK-3174,1 51468U 22010N   24230.60943478  .00008976  00000-0  58128-3 0  9998,2 51468  53.2154 313.7864 0001412  77.1229 282.9921 15.08843088140603,6917.871,95.437,540.713,538.759,0.0
51468.0,STARLINK-3174,PAYLOAD,2024-08-18 11:17:35,15.08852139,0.0001623,53.2181,309.9231,93.0391,267.0787,0.00051122,7.86e-05,0.0,0 STARLINK-3174,1 51468U 22010N   24231.47055221  .00007860  00000-0  51122-3 0  9992,2 51468  53.2181 309.9231 0001623  93.0391 267.0787 15.08852139141544,6917.843,95.437,540.831,538.586,0.0
51468.0,STARLINK-3174,PAYLOAD,2024-08-19 04:46:50,15.08844938,0.0001721,53.2206,306.655,91.3721,268.7469,0.00013043,1.789e-05,0.0,0 STARLINK-3174,1 51468U 22010N   24232.19919257  .00001789  00000-0  13043-3 0  9994,2 51468  53.2206 306.6550 0001721  91.3721 268.7469 15.08844938141652,6917.865,95.437,540.921,538.54,0.0
51468.0,STARLINK-3174,PAYLOAD,2024-08-19 11:08:22,15.08842479,0.0001371,53.2158,305.4608,92.9176,267.1973,0.00012313,1.672e-05,0.0,0 STARLINK-3174,1 51468U 22010N   24232.46415348  .00001672  00000-0  12313-3 0  9996,2 51468  53.2158 305.4608 0001371  92.9176 267.1973 15.08842479140886,6917.873,95.437,540.686,538.789,0.0
51468.0,STARLINK-3174,PAYLOAD,2024-08-20 10:59:09,15.08845225,0.0001649,53.2159,300.9995,104.8936,255.2238,0.00013203,1.814e-05,0.0,0 STARLINK-3174,1 51468U 22010N   24233.45775224  .00001814  00000-0  13203-3 0  9995,2 51468  53.2159 300.9995 0001649 104.8936 255.2238 15.08845225141842,6917.864,95.437,540.87,538.589,0.0
51468.0,STARLINK-3174,PAYLOAD,2024-08-21 04:28:25,15.08828584,0.000177,53.2144,297.7289,103.9342,256.1847,3.1329e-05,2.1e-06,0.0,0 STARLINK-3174,1 51468U 22010N   24234.18640462  .00000210  00000-0  31329-4 0  9990,2 51468  53.2144 297.7289 0001770 103.9342 256.1847 15.08828584141958,6917.915,95.438,541.005,538.556,0.0
51468.0,STARLINK-3174,PAYLOAD,2024-08-21 10:49:58,15.08813444,0.0001397,53.2152,296.5395,89.5803,270.5349,-0.00017085,-3.004e-05,0.0,0 STARLINK-3174,1 51468U 22010N   24234.45137645 -.00003004  00000-0 -17085-3 0  9992,2 51468  53.2152 296.5395 0001397  89.5803 270.5349 15.08813444141998,6917.962,95.439,540.793,538.86,0.0
